[{"OBJECT_NAME":"STARLINK-4048","OBJECT_ID":"2022-062K","EPOCH":"2026-03-09T05:01:11.233056","MEAN_MOTION":15.08840918,"ECCENTRICITY":0.00013721,"INCLINATION":53.2189,"RA_OF_ASC_NODE":36.2792,"ARG_OF_PERICENTER":91.3967,"MEAN_ANOMALY":268.7182,"EPHEMERIS_TYPE":0,"CLASSIFICATION_TYPE":"U","NORAD_CAT_ID":52839,"ELEMENT_SET_NO":999,"REV_AT_EPOCH":20571,"BSTAR":4.2521691e-5,"MEAN_MOTION_DOT":3.89e-6,"MEAN_MOTION_DDOT":0},{"OBJECT_NAME":"RAISE-4","OBJECT_ID":"2025-297B","EPOCH":"2026-03-09T23:25:57.718272","MEAN_MOTION":15.08174958,"ECCENTRICITY":0.00127133,"INCLINATION":97.4953,"RA_OF_ASC_NODE":219.2703,"ARG_OF_PERICENTER":22.7159,"MEAN_ANOMALY":337.4629,"EPHEMERIS_TYPE":0,"CLASSIFICATION_TYPE":"U","NORAD_CAT_ID":67073,"ELEMENT_SET_NO":999,"REV_AT_EPOCH":1293,"BSTAR":0.00037087145,"MEAN_MOTION_DOT":5.682e-5,"MEAN_MOTION_DDOT":0}]
